BEIDOU 3 (C01)          
1 36287U 10001A   22339.87224911 -.00000269  00000+0  00000+0 0  9997
2 36287   1.8111  50.4375 0001559 249.2966 229.3728  1.00269831 47231
BEIDOU 5 (C06)          
1 36828U 10036A   22339.79111132 -.00000015  00000+0  00000+0 0  9996
2 36828  54.1983 174.6641 0030510 183.1673 105.7885  1.00249262 45296
BEIDOU 6 (C04)          
1 37210U 10057A   22339.78977525 -.00000101  00000+0  00000+0 0  9996
2 37210   0.8528  47.2140 0006855 164.9078 306.7404  1.00270236 44356
BEIDOU 7 (C07)          
1 37256U 10068A   22340.24893010 -.00000221  00000+0  00000+0 0  9990
2 37256  49.9066 287.5889 0021421 207.2028 135.1683  1.00252148 43868
BEIDOU 8 (C08)          
1 37384U 11013A   22340.52103428 -.00000210  00000+0  00000+0 0  9999
2 37384  60.5401  52.5647 0024278 185.2771 132.0846  1.00262437 42742
BEIDOU 9 (C09)          
1 37763U 11038A   22339.79140240  .00000056  00000+0  00000+0 0  9994
2 37763  54.4768 177.1662 0100948 227.5840  48.5720  1.00287707 41713
BEIDOU 10 (C10)         
1 37948U 11073A   22339.22597358 -.00000172  00000+0  00000+0 0  9992
2 37948  50.0293 287.2494 0085124 220.9300 100.2662  1.00255262 40468
BEIDOU 11 (C05)         
1 38091U 12008A   22340.12826480  .00000069  00000+0  00000+0 0  9997
2 38091   1.9561  70.9369 0009034 313.2227 155.6218  1.00268550 39552
BEIDOU 12 (C11)         
1 38250U 12018A   22340.08178484 -.00000094  00000+0  00000+0 0  9993
2 38250  56.6369 347.8878 0025114 255.7874 184.1625  1.86234375 72286
BEIDOU 13 (C12)         
1 38251U 12018B   22339.61573362 -.00000093  00000+0  00000+0 0  9994
2 38251  56.5518 347.2162 0016032 258.2350 273.3625  1.86234174 72275
BEIDOU 15 (C14)         
1 38775U 12050B   22339.63593036 -.00000023  00000+0  00000+0 0  9996
2 38775  55.5059 105.9263 0010882 331.2304  49.4909  1.86231286 69650
BEIDOU 16 (C02)         
1 38953U 12059A   22340.66324834 -.00000162  00000+0  00000+0 0  9990
2 38953   1.3511  82.0538 0008022 292.5122  23.4967  1.00278290 37125
BEIDOU 17 (C31)         
1 40549U 15019A   22340.63443769 -.00000184  00000+0  00000+0 0  9993
2 40549  51.5895 310.7486 0037636 200.6280 246.2090  1.00259839 28166
BEIDOU 18 (C57)         
1 40748U 15037A   22339.60339683 -.00000094  00000+0  00000+0 0  9998
2 40748  55.8002 345.9786 0002961 325.3788 107.1760  1.86233323 50100
BEIDOU 19 (C58)         
1 40749U 15037B   22340.49528983 -.00000096  00000+0  00000+0 0  9993
2 40749  55.8065 345.9381 0005967 301.3124 143.3071  1.86232948 50118
BEIDOU 20 (C18)         
1 40938U 15053A   22339.75617231 -.00000152  00000+0  00000+0 0  9996
2 40938  51.2363 273.9012 0044643 199.1980 326.8920  1.00254567 26411
BEIDOU IGSO-6 (C13)     
1 41434U 16021A   22339.09596212 -.00000184  00000+0  00000+0 0  9991
2 41434  58.3498  51.0773 0049727 220.8189 290.4498  1.00291742 24544
BEIDOU-2 G7 (C03)       
1 41586U 16037A   22340.58341990 -.00000341  00000+0  00000+0 0  9998
2 41586   1.7624  69.5944 0007697 346.1011 340.1861  1.00267329 23860
BEIDOU-3 M1 (C19)       
1 43001U 17069A   22340.43875458 -.00000029  00000+0  00000+0 0  9996
2 43001  55.6587 105.9223 0007700 287.2855  68.0958  1.86231505 34597
BEIDOU-3 M2 (C20)       
1 43002U 17069B   22340.45892777 -.00000029  00000+0  00000+0 0  9992
2 43002  55.6590 105.9573 0005417 318.0527  93.6544  1.86231249 34592
BEIDOU-3 M3 (C27)       
1 43107U 18003A   22339.84583383 -.00000097  00000+0  00000+0 0  9993
2 43107  55.2527 346.8127 0003073  47.9249 119.1337  1.86232430 33349
BEIDOU-3 M4 (C28)       
1 43108U 18003B   22339.71732380 -.00000096  00000+0  00000+0 0  9992
2 43108  55.2460 346.8049 0004642 256.7179 227.1077  1.86230902 33347
BEIDOU-3 M5 (C21)       
1 43207U 18018A   22340.51338921 -.00000029  00000+0  00000+0 0  9997
2 43207  55.6177 106.0284 0003378   3.9461 356.0118  1.86231414 32744
BEIDOU-3 M6 (C22)       
1 43208U 18018B   22339.50616079 -.00000021  00000+0  00000+0 0  9990
2 43208  55.6171 106.0667 0005312 299.3978  60.5098  1.86231517 32724
BEIDOU-3 M7 (C29)       
1 43245U 18029A   22339.45676506 -.00000095  00000+0  00000+0 0  9999
2 43245  55.1595 344.5810 0001734 259.8634 276.9129  1.86232574 31870
BEIDOU-3 M8 (C30)       
1 43246U 18029B   22340.47368072 -.00000098  00000+0  10000-3 0  9998
2 43246  55.1564 344.5752 0003928 336.9592 208.2871  1.86232729 31884
BEIDOU IGSO-7 (C16)     
1 43539U 18057A   22338.86818348 -.00000032  00000+0  00000+0 0  9993
2 43539  55.0866 174.2251 0051163 225.1394  99.9751  1.00257961 16211
BEIDOU-3 M9 (C23)       
1 43581U 18062A   22339.64927337  .00000037  00000+0  00000+0 0  9996
2 43581  54.2311 226.2290 0003401 306.5923 257.4015  1.86231989 29617
BEIDOU-3 M10 (C24)      
1 43582U 18062B   22339.50906619  .00000035  00000+0  00000+0 0  9990
2 43582  54.2294 226.2234 0006865  16.6065 185.3774  1.86232044 29613
BEIDOU-3 M11 (C25)      
1 43602U 18067A   22340.47707204  .00000047  00000+0  00000+0 0  9998
2 43602  54.3145 224.8204 0007796  14.1685 157.7954  1.86231538 29124
BEIDOU-3 M12 (C26)      
1 43603U 18067B   22339.67691412  .00000040  00000+0  00000+0 0  9995
2 43603  54.3120 224.8134 0004773   7.2147 258.6218  1.86231496 29125
BEIDOU-3 M13 (C32)      
1 43622U 18072A   22340.31642488 -.00000029  00000+0  00000+0 0  9992
2 43622  55.5853 105.5835 0004452 277.2182  86.1802  1.86231484 28654
BEIDOU-3 M14 (C33)      
1 43623U 18072B   22339.72980527 -.00000025  00000+0  00000+0 0  9991
2 43623  55.5879 105.5956 0002067 318.2100 102.1252  1.86231439 28640
BEIDOU-3 M15 (C34)      
1 43647U 18078A   22340.58781890 -.00000098  00000+0  10000-3 0  9996
2 43647  55.0545 344.6867 0006196 352.4621 178.9458  1.86232496 28163
BEIDOU-3 M16 (C35)      
1 43648U 18078B   22339.53187144 -.00000096  00000+0  00000+0 0  9995
2 43648  55.0509 344.7286 0003764 355.2373  95.6597  1.86232199 28162
BEIDOU-3 G1 (C59)       
1 43683U 18085A   22340.58880140 -.00000265  00000+0  00000+0 0  9993
2 43683   1.1218 141.6260 0004333  74.0084 211.6296  1.00266729 15135
BEIDOU-3 M17 (C36)      
1 43706U 18093A   22340.08350280  .00000041  00000+0  00000+0 0  9991
2 43706  54.3120 226.1115 0007961 288.2299  71.7685  1.86232035 27517
BEIDOU-3 M18 (C37)      
1 43707U 18093B   22339.78066413  .00000038  00000+0  00000+0 0  9995
2 43707  54.3139 226.1129 0007812 316.2707 292.0807  1.86232337 27513
BEIDOU-3 IGSO-1 (C38)   
1 44204U 19023A   22339.72232264 -.00000245  00000+0  00000+0 0  9996
2 44204  56.8108  51.1429 0024248 194.5958 206.5854  1.00258019 13434
BEIDOU-2 G8             
1 44231U 19027A   22340.23082391 -.00000234  00000+0  00000+0 0  9990
2 44231   1.2773  80.0913 0006354 129.3133  93.2519  1.00272154 13147
BEIDOU-3 IGSO-2 (C39)   
1 44337U 19035A   22337.45188355 -.00000042  00000+0  00000+0 0  9990
2 44337  55.1319 170.2221 0025880 188.1190 353.7168  1.00252377 12747
BEIDOU-3 M23 (C45)      
1 44542U 19061A   22339.48302528  .00000035  00000+0  00000+0 0  9993
2 44542  54.5390 226.3080 0008931 354.2924   5.7788  1.86231547 21777
BEIDOU-3 M24 (C46)      
1 44543U 19061B   22339.45362638  .00000035  00000+0  00000+0 0  9999
2 44543  54.5380 226.2781 0005942 342.6194 269.2648  1.86231931 21761
BEIDOU-3 IGSO-3         
1 44709U 19073A   22339.78149457 -.00000219  00000+0  10000-3 0  9994
2 44709  56.9907 294.5996 0026333 183.2282 356.1581  1.00256957 11511
BEIDOU-3 M21            
1 44793U 19078A   22339.59474340 -.00000096  00000+0  10000-3 0  9996
2 44793  54.9042 344.7225 0005698 358.0774 181.1462  1.86232215 20636
BEIDOU-3 M22            
1 44794U 19078B   22339.72466303 -.00000097  00000+0  00000+0 0  9998
2 44794  54.8765 344.7053 0004020 347.0852 191.2053  1.86232681 20635
BEIDOU-3 M19            
1 44864U 19090A   22340.25309929 -.00000028  00000+0  00000+0 0  9994
2 44864  55.5203 105.7872 0015483 266.9385  99.9449  1.86231812 20231
BEIDOU-3 M20            
1 44865U 19090B   22339.63045256 -.00000023  00000+0  00000+0 0  9990
2 44865  55.5212 105.8408 0013201 281.9099 117.3567  1.86231768 20194
BEIDOU-3 G2             
1 45344U 20017A   22340.56996087 -.00000129  00000+0  00000+0 0  9992
2 45344   1.9963   1.2100 0002201 211.2171 148.1421  1.00272231 10352
BEIDOU-3 G3             
1 45807U 20040A   22340.34077105 -.00000340  00000+0  00000+0 0  9994
2 45807   1.0655 310.3852 0009206 340.5263  17.4301  1.00268802  9164
